[{"OBJECT_NAME":"ASTROCAST-0403","OBJECT_ID":"2023-001DG","EPOCH":"2026-03-09T19:45:35.762976","MEAN_MOTION":15.28004949,"ECCENTRICITY":0.00047706,"INCLINATION":97.5604,"RA_OF_ASC_NODE":161.3228,"ARG_OF_PERICENTER":338.0704,"MEAN_ANOMALY":22.033,"EPHEMERIS_TYPE":0,"CLASSIFICATION_TYPE":"U","NORAD_CAT_ID":55111,"ELEMENT_SET_NO":999,"REV_AT_EPOCH":12937,"BSTAR":0.0005131719,"MEAN_MOTION_DOT":0.00013959,"MEAN_MOTION_DDOT":0},{"OBJECT_NAME":"STARLINK-30940","OBJECT_ID":"2023-180H","EPOCH":"2026-03-09T20:01:05.080512","MEAN_MOTION":15.27570165,"ECCENTRICITY":0.00022806,"INCLINATION":43.0025,"RA_OF_ASC_NODE":266.649,"ARG_OF_PERICENTER":277.2266,"MEAN_ANOMALY":82.8327,"EPHEMERIS_TYPE":0,"CLASSIFICATION_TYPE":"U","NORAD_CAT_ID":58409,"ELEMENT_SET_NO":999,"REV_AT_EPOCH":12935,"BSTAR":-9.0927856e-5,"MEAN_MOTION_DOT":-2.763e-5,"MEAN_MOTION_DDOT":0}]
